{"type": "FeatureCollection", "features": [ {"type": "Feature", "properties": {"norad_id": 30716, "name": "FENGYUN 1C DEB", "group": "fengyun-1c-debris", "lat": -67.40575494175047, "lon": -25.61916288254951, "alt_km": 651.8882563560446, "timestamp": "2025-12-18T17:50:15.235199+00:00", "meta": {"OBJECT_NAME": "FENGYUN 1C DEB", "OBJECT_ID": "1999-025ASA", "EPOCH": "2025-12-17T11:44:54.291264", "MEAN_MOTION": 14.79626187, "ECCENTRICITY": 0.00205574, "INCLINATION": 98.8715, "RA_OF_ASC_NODE": 175.0427, "ARG_OF_PERICENTER": 66.9965, "MEAN_ANOMALY": 347.8507, "EPHEMERIS_TYPE": 0, "CLASSIFICATION_TYPE": "U", "NORAD_CAT_ID": 30716, "ELEMENT_SET_NO": 999, "REV_AT_EPOCH": 97894, "BSTAR": 0.0028270278, "MEAN_MOTION_DOT": 0.00021271, "MEAN_MOTION_DDOT": 0}, "tle": {"line1": "1 30716U 99025ASA 25351.48951726  .00021271  00000+0  28270-2 0  9993", "line2": "2 30716  98.8715 175.0427 0020557  66.9965 347.8507 14.79626187978945"}}, "geometry": {"type": "Point", "coordinates": [-25.61916288254951, -67.40575494175047]}}, {"type": "Feature", "properties": {"norad_id": 30717, "name": "FENGYUN 1C DEB", "group": "fengyun-1c-debris", "lat": -71.82378850909993, "lon": -145.30933853358448, "alt_km": 796.7327503113947, "timestamp": "2025-12-18T17:50:15.235209+00:00", "meta": {"OBJECT_NAME": "FENGYUN 1C DEB", "OBJECT_ID": "1999-025ASB", "EPOCH": "2025-12-17T03:27:15.094080", "MEAN_MOTION": 14.20566869, "ECCENTRICITY": 0.00484854, "INCLINATION": 99.0175, "RA_OF_ASC_NODE": 61.9852, "ARG_OF_PERICENTER": 244.9903, "MEAN_ANOMALY": 114.6234, "EPHEMERIS_TYPE": 0, "CLASSIFICATION_TYPE": "U", "NORAD_CAT_ID": 30717, "ELEMENT_SET_NO": 999, "REV_AT_EPOCH": 96599, "BSTAR": 0.0011023797, "MEAN_MOTION_DOT": 2.352e-05, "MEAN_MOTION_DDOT": 0}, "tle": {"line1": "1 30717U 99025ASB 25351.14392470  .00002352  00000+0  11024-2 0  9990", "line2": "2 30717  99.0175  61.9852 0048485 244.9903 114.6234 14.20566869965998"}}, "geometry": {"type": "Point", "coordinates": [-145.30933853358448, -71.82378850909993]}}, {"type": "Feature", "properties": {"norad_id": 30718, "name": "FENGYUN 1C DEB", "group": "fengyun-1c-debris", "lat": 44.977008217993806, "lon": 64.2161850617774, "alt_km": 809.105959015139, "timestamp": "2025-12-18T17:50:15.235219+00:00", "meta": {"OBJECT_NAME": "FENGYUN 1C DEB", "OBJECT_ID": "1999-025ASC", "EPOCH": "2025-12-17T16:20:03.899616", "MEAN_MOTION": 14.24385221, "ECCENTRICITY": 0.00573778, "INCLINATION": 98.8909, "RA_OF_ASC_NODE": 72.1396, "ARG_OF_PERICENTER": 142.5754, "MEAN_ANOMALY": 217.9442, "EPHEMERIS_TYPE": 0, "CLASSIFICATION_TYPE": "U", "NORAD_CAT_ID": 30718, "ELEMENT_SET_NO": 999, "REV_AT_EPOCH": 96844, "BSTAR": 0.0012216109, "MEAN_MOTION_DOT": 2.83e-05, "MEAN_MOTION_DDOT": 0}, "tle": {"line1": "1 30718U 99025ASC 25351.68060069  .00002830  00000+0  12216-2 0  9991", "line2": "2 30718  98.8909  72.1396 0057377 142.5754 217.9442 14.24385221968441"}}, "geometry": {"type": "Point", "coordinates": [64.2161850617774, 44.977008217993806]}}, {"type": "Feature", "properties": {"norad_id": 30719, "name": "FENGYUN 1C DEB", "group": "fengyun-1c-debris", "lat": 80.11263981204056, "lon": 71.07230691032287, "alt_km": 687.968826851401, "timestamp": "2025-12-18T17:50:15.235229+00:00", "meta": {"OBJECT_NAME": "FENGYUN 1C DEB", "OBJECT_ID": "1999-025ASD", "EPOCH": "2025-12-17T08:32:12.739200", "MEAN_MOTION": 14.59394976, "ECCENTRICITY": 0.0010871, "INCLINATION": 98.887, "RA_OF_ASC_NODE": 133.4427, "ARG_OF_PERICENTER": 182.7616, "MEAN_ANOMALY": 177.3523, "EPHEMERIS_TYPE": 0, "CLASSIFICATION_TYPE": "U", "NORAD_CAT_ID": 30719, "ELEMENT_SET_NO": 999, "REV_AT_EPOCH": 97516, "BSTAR": 0.0026615322, "MEAN_MOTION_DOT": 0.00012583, "MEAN_MOTION_DDOT": 0}, "tle": {"line1": "1 30719U 99025ASD 25351.35570300  .00012583  00000+0  26615-2 0  9994", "line2": "2 30719  98.8870 133.4427 0010871 182.7616 177.3523 14.59394976975167"}}, "geometry": {"type": "Point", "coordinates": [71.07230691032287, 80.11263981204056]}}, {"type": "Feature", "properties": {"norad_id": 30720, "name": "FENGYUN 1C DEB", "group": "fengyun-1c-debris", "lat": 11.80818029622093, "lon": -11.642120441908435, "alt_km": 814.5585911724265, "timestamp": "2025-12-18T17:50:15.235239+00:00", "meta": {"OBJECT_NAME": "FENGYUN 1C DEB", "OBJECT_ID": "1999-025ASE", "EPOCH": "2025-12-18T06:06:36.057600", "MEAN_MOTION": 14.29134102, "ECCENTRICITY": 0.00324098, "INCLINATION": 99.0363, "RA_OF_ASC_NODE": 165.9451, "ARG_OF_PERICENTER": 312.9007, "MEAN_ANOMALY": 222.6265, "EPHEMERIS_TYPE": 0, "CLASSIFICATION_TYPE": "U", "NORAD_CAT_ID": 30720, "ELEMENT_SET_NO": 999, "REV_AT_EPOCH": 97567, "BSTAR": 0.0003238264, "MEAN_MOTION_DOT": 7.78e-06, "MEAN_MOTION_DDOT": 0}, "tle": {"line1": "1 30720U 99025ASE 25352.25458400  .00000778  00000+0  32383-3 0  9995", "line2": "2 30720  99.0363 165.9451 0032409 312.9007 222.6265 14.29134102975671"}}, "geometry": {"type": "Point", "coordinates": [-11.642120441908435, 11.80818029622093]}}, {"type": "Feature", "properties": {"norad_id": 30721, "name": "FENGYUN 1C DEB", "group": "fengyun-1c-debris", "lat": -67.29958516156347, "lon": -77.02866122731898, "alt_km": 655.5409580245805, "timestamp": "2025-12-18T17:50:15.235249+00:00", "meta": {"OBJECT_NAME": "FENGYUN 1C DEB", "OBJECT_ID": "1999-025ASF", "EPOCH": "2025-12-18T02:16:18.979968", "MEAN_MOTION": 14.72084281, "ECCENTRICITY": 0.00282103, "INCLINATION": 98.7091, "RA_OF_ASC_NODE": 123.7732, "ARG_OF_PERICENTER": 323.3448, "MEAN_ANOMALY": 90.7951, "EPHEMERIS_TYPE": 0, "CLASSIFICATION_TYPE": "U", "NORAD_CAT_ID": 30721, "ELEMENT_SET_NO": 999, "REV_AT_EPOCH": 97921, "BSTAR": 0.0023354951, "MEAN_MOTION_DOT": 0.0001475, "MEAN_MOTION_DDOT": 0}, "tle": {"line1": "1 30721U 99025ASF 25352.09466412  .00014750  00000+0  23355-2 0  9993", "line2": "2 30721  98.7091 123.7732 0028210 323.3448  90.7951 14.72084281979210"}}, "geometry": {"type": "Point", "coordinates": [-77.02866122731898, -67.29958516156347]}}, {"type": "Feature", "properties": {"norad_id": 30723, "name": "FENGYUN 1C DEB", "group": "fengyun-1c-debris", "lat": -2.1797246871472593, "lon": -101.364876836125, "alt_km": 751.7082260109519, "timestamp": "2025-12-18T17:50:15.235259+00:00", "meta": {"OBJECT_NAME": "FENGYUN 1C DEB", "OBJECT_ID": "1999-025ASH", "EPOCH": "2025-12-18T05:35:32.502048", "MEAN_MOTION": 14.41413575, "ECCENTRICITY": 0.0015934, "INCLINATION": 98.8442, "RA_OF_ASC_NODE": 78.4468, "ARG_OF_PERICENTER": 245.752, "MEAN_ANOMALY": 170.4461, "EPHEMERIS_TYPE": 0, "CLASSIFICATION_TYPE": "U", "NORAD_CAT_ID": 30723, "ELEMENT_SET_NO": 999, "REV_AT_EPOCH": 97450, "BSTAR": 0.0017915378, "MEAN_MOTION_DOT": 5.773e-05, "MEAN_MOTION_DDOT": 0}, "tle": {"line1": "1 30723U 99025ASH 25352.23301507  .00005773  00000+0  17915-2 0  9994", "line2": "2 30723  98.8442  78.4468 0015934 245.7520 170.4461 14.41413575974509"}}, "geometry": {"type": "Point", "coordinates": [-101.364876836125, -2.1797246871472593]}}, {"type": "Feature", "properties": {"norad_id": 30724, "name": "FENGYUN 1C DEB", "group": "fengyun-1c-debris", "lat": -0.07190195702726716, "lon": 177.9253841246571, "alt_km": 801.4823494635684, "timestamp": "2025-12-18T17:50:15.235269+00:00", "meta": {"OBJECT_NAME": "FENGYUN 1C DEB", "OBJECT_ID": "1999-025ASJ", "EPOCH": "2025-12-17T11:53:17.210112", "MEAN_MOTION": 14.37060559, "ECCENTRICITY": 0.0093002, "INCLINATION": 99.3149, "RA_OF_ASC_NODE": 176.5637, "ARG_OF_PERICENTER": 246.0448, "MEAN_ANOMALY": 140.7994, "EPHEMERIS_TYPE": 0, "CLASSIFICATION_TYPE": "U", "NORAD_CAT_ID": 30724, "ELEMENT_SET_NO": 999, "REV_AT_EPOCH": 98521, "BSTAR": 0.00035250464, "MEAN_MOTION_DOT": 1.046e-05, "MEAN_MOTION_DDOT": 0}, "tle": {"line1": "1 30724U 99025ASJ 25351.49533808  .00001046  00000+0  35250-3 0  9995", "line2": "2 30724  99.3149 176.5637 0093002 246.0448 140.7994 14.37060559985219"}}, "geometry": {"type": "Point", "coordinates": [177.9253841246571, -0.07190195702726716]}}, {"type": "Feature", "properties": {"norad_id": 30725, "name": "FENGYUN 1C DEB", "group": "fengyun-1c-debris", "lat": 63.257876100239855, "lon": 43.27804828687412, "alt_km": 792.988406485586, "timestamp": "2025-12-18T17:50:15.235279+00:00", "meta": {"OBJECT_NAME": "FENGYUN 1C DEB", "OBJECT_ID": "1999-025ASK", "EPOCH": "2025-12-18T04:13:47.040960", "MEAN_MOTION": 14.16096218, "ECCENTRICITY": 0.00869506, "INCLINATION": 99.0078, "RA_OF_ASC_NODE": 61.0543, "ARG_OF_PERICENTER": 14.8425, "MEAN_ANOMALY": 40.2494, "EPHEMERIS_TYPE": 0, "CLASSIFICATION_TYPE": "U", "NORAD_CAT_ID": 30725, "ELEMENT_SET_NO": 999, "REV_AT_EPOCH": 96425, "BSTAR": 0.00092452617, "MEAN_MOTION_DOT": 1.85e-05, "MEAN_MOTION_DDOT": 0}, "tle": {"line1": "1 30725U 99025ASK 25352.17623890  .00001850  00000+0  92453-3 0  9994", "line2": "2 30725  99.0078  61.0543 0086950  14.8425  40.2494 14.16096218964250"}}, "geometry": {"type": "Point", "coordinates": [43.27804828687412, 63.257876100239855]}}, {"type": "Feature", "properties": {"norad_id": 30726, "name": "FENGYUN 1C DEB", "group": "fengyun-1c-debris", "lat": -47.685884405336004, "lon": 4.995191839759527, "alt_km": 879.938322110821, "timestamp": "2025-12-18T17:50:15.235289+00:00", "meta": {"OBJECT_NAME": "FENGYUN 1C DEB", "OBJECT_ID": "1999-025ASL", "EPOCH": "2025-12-18T06:43:44.349024", "MEAN_MOTION": 14.09322212, "ECCENTRICITY": 0.0078245, "INCLINATION": 99.2674, "RA_OF_ASC_NODE": 354.1874, "ARG_OF_PERICENTER": 210.6992, "MEAN_ANOMALY": 272.9319, "EPHEMERIS_TYPE": 0, "CLASSIFICATION_TYPE": "U", "NORAD_CAT_ID": 30726, "ELEMENT_SET_NO": 999, "REV_AT_EPOCH": 96061, "BSTAR": 0.00083436664, "MEAN_MOTION_DOT": 1.448e-05, "MEAN_MOTION_DDOT": 0}, "tle": {"line1": "1 30726U 99025ASL 25352.28037441  .00001448  00000+0  83437-3 0  9993", "line2": "2 30726  99.2674 354.1874 0078245 210.6992 272.9319 14.09322212960615"}}, "geometry": {"type": "Point", "coordinates": [4.995191839759527, -47.685884405336004]}}]}